1 45709U 20035BE  22365.31579648  .00005779  00000-0  40639-3 0  9999
2 45709  53.0530 223.7117 0001275  85.4215 274.6920 15.06410378143616
1 45709U 20035BE  22365.71388030  .00002026  00000-0  15486-3 0  9990
2 45709  53.0529 221.9248 0001318  86.8512 273.2627 15.06402224143678
1 45709U 20035BE  23001.37735284 -.00001449  00000-0 -78441-4 0  9998
2 45709  53.0532 218.9462 0001289  86.6873 273.4264 15.06392015143407
1 45709U 20035BE  23001.57639914 -.00000236  00000-0  30348-5 0  9990
2 45709  53.0539 218.0519 0001261  88.6622 271.4511 15.06391243143801
1 45709U 20035BE  23001.70909070 -.00000413  00000-0 -88106-5 0  9991
2 45709  53.0538 217.4565 0001279  89.2687 270.8448 15.06394752143823
1 45709U 20035BE  23002.43890288 -.00000772  00000-0 -32908-4 0  9998
2 45709  53.0538 214.1802 0001791  86.8188 273.3006 15.06402592143560
1 45709U 20035BE  23002.57159381 -.00000720  00000-0 -29420-4 0  9993
2 45709  53.0537 213.5845 0001283  88.1789 271.9347 15.06402949143958
1 45709U 20035BE  23002.83698075  .00000506  00000-0  52855-4 0  9998
2 45709  53.0538 212.3932 0001298  87.9806 272.1332 15.06400256143996
1 45709U 20035BE  23003.56679421  .00002148  00000-0  16307-3 0  9998
2 45709  53.0539 209.1171 0001298  86.9442 273.1695 15.06398883144100
1 45709U 20035BE  23003.56679421  .00002148  00000-0  16307-3 0  9998
2 45709  53.0539 209.1171 0001298  86.9442 273.1695 15.06398883143738
1 45709U 20035BE  23003.83219612 -.00000083  00000-0  13342-4 0  9994
2 45709  53.0538 207.9261 0001344  86.1158 273.9985 15.06385661144147
1 45709U 20035BE  23003.83219612 -.00000083  00000-0  13342-4 0  9994
2 45709  53.0538 207.9261 0001344  86.1158 273.9985 15.06385661143775
1 45709U 20035BE  23004.82739561  .00000253  00000-0  35899-4 0  9993
2 45709  53.0537 203.4583 0001379  86.0600 274.0547 15.06395419144297
1 45709U 20035BE  23004.82739561  .00000253  00000-0  35899-4 0  9993
2 45709  53.0537 203.4583 0001379  86.0600 274.0547 15.06395419143926
1 45709U 20035BE  23005.55720942  .00001516  00000-0  12068-3 0  9992
2 45709  53.0539 200.1815 0001442  87.3475 272.7679 15.06395056144407
1 45709U 20035BE  23005.82259449  .00001858  00000-0  14359-3 0  9995
2 45709  53.0539 198.9902 0001443  87.3992 272.7162 15.06398558144444
1 45709U 20035BE  23006.22067587  .00001990  00000-0  15248-3 0  9995
2 45709  53.0540 197.2034 0001461  88.0379 272.0777 15.06399852144130
1 45709U 20035BE  23006.55241722  .00000311  00000-0  39763-4 0  9991
2 45709  53.0548 195.7154 0001555  92.8250 267.2917 15.06393959144188
1 45709U 20035BE  23006.88415281  .00000185  00000-0  31315-4 0  9994
2 45709  53.0548 194.2260 0001532  91.5659 268.5505 15.06393321144601
1 45709U 20035BE  23007.21588744  .00000013  00000-0  19741-4 0  9996
2 45709  53.0548 192.7369 0001548  92.1142 268.0025 15.06394599144650
1 45709U 20035BE  23007.87935120  .00000183  00000-0  31210-4 0  9995
2 45709  53.0545 189.7574 0001425  89.8632 270.2521 15.06401174144757
1 45709U 20035BE  23007.87935120  .00000183  00000-0  31210-4 0  9995
2 45709  53.0545 189.7574 0001425  89.8632 270.2521 15.06401174144386
1 45709U 20035BE  23008.21108266  .00000663  00000-0  63405-4 0  9991
2 45709  53.0543 188.2681 0001396  88.2939 271.8210 15.06402817144801
1 45709U 20035BE  23008.87454640  .00002055  00000-0  15679-3 0  9999
2 45709  53.0542 185.2894 0001310  88.3589 271.7550 15.06404252144903
1 45709U 20035BE  23009.47166740  .00001889  00000-0  14566-3 0  9995
2 45709  53.0544 182.6088 0002075  86.8562 273.2665 15.06406831144992
1 45709U 20035BE  23009.47166740  .00001889  00000-0  14566-3 0  9995
2 45709  53.0544 182.6088 0002075  86.8562 273.2665 15.06406831144622
1 45709U 20035BE  23009.73705439  .00001620  00000-0  12765-3 0  9990
2 45709  53.0545 181.4173 0002063  86.8292 273.2933 15.06406284145038
1 45709U 20035BE  23010.20149207 -.00000329  00000-0 -32026-5 0  9990
2 45709  53.0529 179.3332 0001497  80.6459 279.4699 15.06394336145109
1 45709U 20035BE  23010.20149207 -.00000329  00000-0 -32026-5 0  9990
2 45709  53.0529 179.3332 0001497  80.6459 279.4699 15.06394336144737
1 45709U 20035BE  23010.86497186 -.00002366  00000-0 -13999-3 0  9993
2 45709  53.0531 176.3542 0001894  89.7215 270.3991 15.06387779145202
1 45709U 20035BE  23010.86497186 -.00002366  00000-0 -13999-3 0  9993
2 45709  53.0531 176.3542 0001894  89.7215 270.3991 15.06387779144830
1 45709U 20035BE  23011.72747329  .00000621  00000-0  60558-4 0  9990
2 45709  53.0529 172.4829 0001214  86.0796 274.0332 15.06392906144964
1 45709U 20035BE  23011.86016400  .00001468  00000-0  11744-3 0  9996
2 45709  53.0520 171.8867 0001683  93.1639 266.9543 15.06398311145359
1 45709U 20035BE  23012.12553929 -.00007423  00000-0 -47954-3 0  9999
2 45709  53.0523 170.6959 0001200  98.8735 261.2390 15.06431860145024
1 45709U 20035BE  23012.72268088  .00002939  00000-0  21619-3 0  9999
2 45709  53.0524 168.0151 0001144  90.5842 269.5278 15.06390440145489
1 45709U 20035BE  23012.72268088  .00002939  00000-0  21619-3 0  9999
2 45709  53.0524 168.0151 0001144  90.5842 269.5278 15.06390440145119
1 45709U 20035BE  23013.45249845 -.00001484  00000-0 -80776-4 0  9996
2 45709  53.0511 164.7376 0001359  88.8634 271.2511 15.06394789145596
1 45709U 20035BE  23014.44769793  .00001358  00000-0  11001-3 0  9997
2 45709  53.0546 160.2717 0001390  98.3390 261.7757 15.06401873145379
1 45709U 20035BE  23015.11116865  .00000914  00000-0  80225-4 0  9990
2 45709  53.0534 157.2928 0000990  92.1405 267.9697 15.06395992145476
1 45709U 20035BE  23015.57559979  .00001458  00000-0  11677-3 0  9995
2 45709  53.0503 155.2056 0001199  91.2779 268.8347 15.06395145145919
1 45709U 20035BE  23015.77463502  .00002920  00000-0  21483-3 0  9994
2 45709  53.0509 154.3121 0001165  90.4163 269.6959 15.06405142145949
1 45709U 20035BE  23016.63714697  .00000260  00000-0  36319-4 0  9994
2 45709  53.0516 150.4407 0000987  96.4878 263.6223 15.06398536146072
1 45709U 20035BE  23016.76983893  .00001314  00000-0  10706-3 0  9996
2 45709  53.0503 149.8441 0001150 100.5267 259.5851 15.06402073146095
1 45709U 20035BE  23016.76983893  .00001314  00000-0  10706-3 0  9996
2 45709  53.0503 149.8441 0001150 100.5267 259.5851 15.06402073145724
1 45709U 20035BE  23017.36697052  .00001133  00000-0  94978-4 0  9995
2 45709  53.0512 147.1635 0001210  94.2289 265.8839 15.06389433146181
1 45709U 20035BE  23017.36697052  .00001133  00000-0  94978-4 0  9995
2 45709  53.0512 147.1635 0001210  94.2289 265.8839 15.06389433145810
1 45709U 20035BE  23018.62755336  .00006040  00000-0  42391-3 0  9998
2 45709  53.0519 141.5066 0000968  73.6781 286.4315 15.06411952146372
1 45709U 20035BE  23018.62755336  .00006040  00000-0  42391-3 0  9998
2 45709  53.0519 141.5066 0000968  73.6781 286.4315 15.06411952146002
1 45709U 20035BE  23019.42371844 -.00003784  00000-0 -23536-3 0  9999
2 45709  53.0553 137.9298 0000133 356.4438   3.6550 15.06389299146492
1 45709U 20035BE  23019.42371844 -.00003784  00000-0 -23536-3 0  9999
2 45709  53.0553 137.9298 0000133 356.4438   3.6550 15.06389299146122
1 45709U 20035BE  23020.48527811  .00025129  00000-0  16996-2 0  9990
2 45709  53.0514 133.1662 0001340 101.4639 258.6501 15.06406853146656
1 45709U 20035BE  23020.48527811  .00025129  00000-0  16996-2 0  9990
2 45709  53.0514 133.1662 0001340 101.4639 258.6501 15.06406853146285
1 45709U 20035BE  23021.08239819  .00009623  00000-0  66389-3 0  9998
2 45709  53.0515 130.4871 0001468  90.3169 269.7988 15.06406211146373
1 45709U 20035BE  23021.61317029  .00007993  00000-0  55478-3 0  9992
2 45709  53.0516 128.1025 0001380  89.0758 271.0389 15.06408128146450
1 45709U 20035BE  23022.54202553  .00003517  00000-0  25481-3 0  9999
2 45709  53.0517 123.9322 0001333  79.5147 280.5992 15.06405987146598
1 45709U 20035BE  23023.27184148  .00001862  00000-0  14386-3 0  9992
2 45709  53.0521 120.6565 0001727  83.2530 276.8655 15.06399899146702
1 45709U 20035BE  23024.06800623  .00000107  00000-0  26094-4 0  9994
2 45709  53.0519 117.0807 0001263  93.5554 266.5579 15.06394165146828
1 45709U 20035BE  23024.53243096  .00002789  00000-0  20606-3 0  9991
2 45709  53.0512 114.9963 0001413  86.2111 273.9039 15.06405072146895
1 45709U 20035BE  23025.06321120  .00001196  00000-0  99201-4 0  9994
2 45709  53.0512 112.6122 0001504 104.7292 255.3864 15.06394538146977
1 45709U 20035BE  23025.52764115  .00001671  00000-0  13109-3 0  9990
2 45709  53.0515 110.5301 0001489  82.0316 278.0842 15.06396765147415
1 45709U 20035BE  23026.12476483  .00001834  00000-0  14202-3 0  9991
2 45709  53.0513 107.8495 0001285  81.8208 278.2927 15.06394826147138
1 45709U 20035BE  23026.52284019  .00005479  00000-0  38634-3 0  9991
2 45709  53.0513 106.0629 0001310  85.0793 275.0345 15.06409580147562
1 45709U 20035BE  23026.52284019  .00005479  00000-0  38634-3 0  9991
2 45709  53.0513 106.0629 0001310  85.0793 275.0345 15.06409580147191
1 45709U 20035BE  23026.92092188  .00003403  00000-0  24724-3 0  9999
2 45709  53.0512 104.2737 0001242  87.9252 272.1879 15.06403244147253
1 45709U 20035BE  23027.18631852 -.00003530  00000-0 -21836-3 0  9999
2 45709  53.0515 103.0833 0001010  89.5523 270.5582 15.06380475147299
1 45709U 20035BE  23027.51805439 -.00002120  00000-0 -12356-3 0  9991
2 45709  53.0515 101.5940 0001026  89.9557 270.1550 15.06383845147711
1 45709U 20035BE  23027.98248145  .00002334  00000-0  17558-3 0  9991
2 45709  53.0513  99.5086 0000988  96.6512 263.4590 15.06393003147411
1 45709U 20035BE  23028.44690919  .00019917  00000-0  13517-2 0  9998
2 45709  53.0510  97.4233 0000959  88.5593 271.5506 15.06414357147486
1 45709U 20035BE  23028.57960060  .00020588  00000-0  13962-2 0  9999
2 45709  53.0510  96.8274 0000970  88.1970 271.9130 15.06421329147879
1 45709U 20035BE  23028.91132723  .00018385  00000-0  12487-2 0  9997
2 45709  53.0512  95.3382 0001005  85.2091 274.9013 15.06435781147923
1 45709U 20035BE  23029.17672106  .00001343  00000-0  10902-3 0  9997
2 45709  53.0511  94.1470 0000926  81.4983 278.6111 15.06404738147597
1 45709U 20035BE  23029.44210787  .00004870  00000-0  34554-3 0  9997
2 45709  53.0515  92.9557 0000990  87.2579 272.8523 15.06405445148005
1 45709U 20035BE  23030.43730679  .00000954  00000-0  82904-4 0  9997
2 45709  53.0519  88.4892 0001097  74.8574 285.2536 15.06406237148155
1 45709U 20035BE  23030.43730679  .00000954  00000-0  82904-4 0  9997
2 45709  53.0519  88.4892 0001097  74.8574 285.2536 15.06406237147783
1 45709U 20035BE  23030.63634431  .00000705  00000-0  66176-4 0  9995
2 45709  53.0519  87.5941 0001133  77.8417 282.2699 15.06409125148189
1 45709U 20035BE  23031.16712650 -.00000576  00000-0 -19813-4 0  9998
2 45709  53.0525  85.2135 0001145  82.4934 277.6185 15.06394585147893
1 45709U 20035BE  23031.56520217  .00000769  00000-0  70480-4 0  9997
2 45709  53.0519  83.4247 0001247  94.4421 265.6710 15.06403023147953
